{
  "1": {
    "name": "Champaign",
    "address": {"street": "2125 South First St.", "city": "Champaign", "zip": "61820",}
    "telephone": "217-278-5800"
  },
  "2": {
    "name": "Collinsville",
    "address": {"street": "2009 Mall Street", "city": "Collinsville", "zip": "62234"},
    "telephone": "618-346-5120"
  },
  "3": {
    "name": "Des Plaines",
    "address": {"street": "9511 West Harrison", "city": "Des Plaines", "zip": "60016"},
    "telephone": "847-294-4000"
  },
  "4": {
    "name": "Elgin",
    "address": {"street": "595 South State", "city": "Elgin", "zip": "60123"},
    "telephone": "847-608-3131"
  },
  "5": {
    "name": "Marion",
    "address": {"street": "2309 West Main Street", "city": "Marion", "zip": "62959"},
    "telephone": "618-993-7200"
  },
  "7": {
    "name": "Peoria",
    "address": {"street": "412 SW Washington St â€“ Ste D", "city": "Peoria", "zip": "61602"},
    "telephone": "309-671-3022"
  },
  "8": {
    "name": "Rock Island",
    "address": {"street": "500-42nd St., Ste 1", "city": "Rock Island", "zip": "61201"},
    "telephone": "309-794-3598"
  },
  "9": {
    "name": "Rockford",
    "address": {"street": "4302 North Main Street", "city": "Rockford", "zip": "61103"},
    "telephone": "815-987-7760"
  },
  "10": {
    "name": "Springfield",
    "address": {"street": "1021 North Grand Ave E", "city": "Springfield", "zip": "62702"},
    "telephone": "217-557-8761"
  }
}